[{"OBJECT_NAME":"SAUDISAT 3","OBJECT_ID":"2007-012B","EPOCH":"2026-03-09T20:05:49.413408","MEAN_MOTION":14.71354049,"ECCENTRICITY":0.00145843,"INCLINATION":98.1349,"RA_OF_ASC_NODE":19.2397,"ARG_OF_PERICENTER":178.409,"MEAN_ANOMALY":181.7165,"EPHEMERIS_TYPE":0,"CLASSIFICATION_TYPE":"U","NORAD_CAT_ID":31118,"ELEMENT_SET_NO":999,"REV_AT_EPOCH":1313,"BSTAR":8.9295518e-5,"MEAN_MOTION_DOT":5.02e-6,"MEAN_MOTION_DDOT":0},{"OBJECT_NAME":"COSMOS 2251 DEB","OBJECT_ID":"1993-036BPS","EPOCH":"2026-03-08T03:48:20.105856","MEAN_MOTION":14.41503913,"ECCENTRICITY":0.01474301,"INCLINATION":74.0171,"RA_OF_ASC_NODE":339.0022,"ARG_OF_PERICENTER":97.7991,"MEAN_ANOMALY":263.9931,"EPHEMERIS_TYPE":0,"CLASSIFICATION_TYPE":"U","NORAD_CAT_ID":37967,"ELEMENT_SET_NO":999,"REV_AT_EPOCH":65966,"BSTAR":0.0019441759,"MEAN_MOTION_DOT":7.169e-5,"MEAN_MOTION_DDOT":0}]
